  
    The mean element set is posted at the UTC for which position is
    just north of the next ascending node relative to the above
    vector time
 
 
    TWO LINE MEAN ELEMENT SET
  
    ISS
    1 25544U 98067A   17328.53108418  .00016717  00000-0  10270-3 0  9020
    2 25544  51.6384 318.9869 0003876 145.5281 214.6123 15.54216522  6685
  
  
    Satellite: ISS
    Catalog Number: 25544
    Epoch time:      17328.53108418   =   yrday.fracday
    Element set:     902
    Inclination:       51.6384  deg
    RA of node:       318.9869  deg
    Eccentricity:     .0003876     
    Arg of perigee:   145.5281  deg
    Mean anomaly:     214.6123  deg
    Mean motion:   15.54216522  rev/day
    Decay rate:    1.67170E-04  rev/day^2
    Epoch rev:             668
    Checksum:              319
 
 
    Coasting Arc #4 (Orbit 683)
    ---------------------------------------
 
    Vector Time (GMT): 2017/329/12:00:00.000
    Vector Time (MET): N/A
    Weight (LBS)     : 933812.0
 
              M50 Cartesian                         M50 Keplerian  
    -----------------------------------       --------------------------------
     X    =        5522889.16                 A    =         6786807.29  meter
     Y    =       -3263042.89  meter          E    =           .0015010
     Z    =        2201227.22                 I    =           51.38154
     XDOT =        955.603063                 Wp   =           86.28913
     YDOT =       5313.156623  meter/sec      RA   =          313.51536  deg
     ZDOT =       5447.257077                 TA   =          298.25620
                                              MA   =          298.40763
                                              Ha   =            221.734  n.mi
                                              Hp   =            213.629
 
              M50 Cartesian                         J2K Cartesian  
    -----------------------------------       --------------------------------
     X    =       18119715.08                 X    =         5548274.31
     Y    =      -10705521.30  feet           Y    =        -3201140.34  meter
     Z    =        7221874.09                 Z    =         2228117.49
     XDOT =       3135.180654                 XDOT =         869.658525
     YDOT =      17431.616216  feet/sec       YDOT =        5323.362029  meter/sec
     ZDOT =      17871.578335                 ZDOT =        5451.690648
 
              TDR Cartesian                         TDR Cartesian  
    -----------------------------------       --------------------------------
     X    =        1609065.29                 X    =          490443.10
     Y    =       20942729.60  feet           Y    =         6383343.98  meter
     Z    =        7341710.43                 Z    =         2237753.34
     XDOT =     -15443.082544                 XDOT =       -4707.051559
     YDOT =      -5120.452187  feet/sec       YDOT =       -1560.713827  meter/sec
     ZDOT =      17890.313835                 ZDOT =        5452.967657
  
  
    The mean element set is posted at the UTC for which position is
    just north of the next ascending node relative to the above
    vector time
 
 
    TWO LINE MEAN ELEMENT SET
  
    ISS
    1 25544U 98067A   17329.55985295  .00016717  00000-0  10270-3 0  9030
    2 25544  51.6389 313.8586 0003945 152.6597 207.4763 15.54266996  6844
  
  
    Satellite: ISS
    Catalog Number: 25544
    Epoch time:      17329.55985295   =   yrday.fracday
    Element set:     903
    Inclination:       51.6389  deg
    RA of node:       313.8586  deg
    Eccentricity:     .0003945     
    Arg of perigee:   152.6597  deg
    Mean anomaly:     207.4763  deg
    Mean motion:   15.54266996  rev/day
    Decay rate:    1.67170E-04  rev/day^2
    Epoch rev:             684
    Checksum:              368
 
 
    Coasting Arc #5 (Orbit 698)
    ---------------------------------------
 
    Vector Time (GMT): 2017/330/12:00:00.000
    Vector Time (MET): N/A
    Weight (LBS)     : 933812.0
 
              M50 Cartesian                         M50 Keplerian  
    -----------------------------------       --------------------------------
     X    =       -5345485.42                 A    =         6783227.30  meter
     Y    =        2009169.31  meter          E    =           .0007699
     Z    =       -3665143.14                 I    =           51.34731
     XDOT =        591.552720                 Wp   =          106.80560
     YDOT =      -6298.101421  meter/sec      RA   =          308.51538  deg
     ZDOT =      -4325.011269                 TA   =          116.95471
                                              MA   =          116.87605
                                              Ha   =            221.715  n.mi
                                              Hp   =            213.660
 
              M50 Cartesian                         J2K Cartesian  
    -----------------------------------       --------------------------------
     X    =      -17537681.84                 X    =        -5349751.55
     Y    =        6591762.83  feet           Y    =         1949368.71  meter
     Z    =      -12024747.84                 Z    =        -3691120.42
     XDOT =       1940.789764                 XDOT =         682.944814
     YDOT =     -20663.062406  feet/sec       YDOT =       -6290.975126  meter/sec
     ZDOT =     -14189.669517                 ZDOT =       -4321.915889
 
              TDR Cartesian                         TDR Cartesian  
    -----------------------------------       --------------------------------
     X    =        1489813.57                 X    =          454095.18
     Y    =      -18601331.40  feet           Y    =        -5669685.81  meter
     Z    =      -12140309.21                 Z    =        -3700366.25
     XDOT =      16463.720555                 XDOT =        5018.142025
     YDOT =      10549.283817  feet/sec       YDOT =        3215.421708  meter/sec
     ZDOT =     -14174.852134                 ZDOT =       -4320.494930
  
  
    The mean element set is posted at the UTC for which position is
    just north of the next ascending node relative to the above
    vector time
 
 
    TWO LINE MEAN ELEMENT SET
  
    ISS
    1 25544U 98067A   17330.52432103  .00016717  00000-0  10270-3 0  9045
    2 25544  51.6387 309.0492 0003778 152.1327 208.0029 15.54230645  6995
  
  
    Satellite: ISS
    Catalog Number: 25544
    Epoch time:      17330.52432103   =   yrday.fracday
    Element set:     904
    Inclination:       51.6387  deg
    RA of node:       309.0492  deg
    Eccentricity:     .0003778     
    Arg of perigee:   152.1327  deg
    Mean anomaly:     208.0029  deg
    Mean motion:   15.54230645  rev/day
    Decay rate:    1.67170E-04  rev/day^2
    Epoch rev:             699
    Checksum:              294
 
 
    Coasting Arc #6 (Orbit 714)
    ---------------------------------------
 
    Vector Time (GMT): 2017/331/12:00:00.000
    Vector Time (MET): N/A
    Weight (LBS)     : 933812.0
 
              M50 Cartesian                         M50 Keplerian  
    -----------------------------------       --------------------------------
     X    =        4858042.51                 A    =         6779448.88  meter
     Y    =        -527725.84  meter          E    =           .0010820
     Z    =        4695103.64                 I    =           51.31469
     XDOT =      -1922.195893                 Wp   =          130.24980
     YDOT =       6897.083136  meter/sec      RA   =          303.50496  deg
     ZDOT =       2753.052878                 TA   =          292.32062
                                              MA   =          292.43528
                                              Ha   =            221.474  n.mi
                                              Hp   =            213.853
 
              M50 Cartesian                         J2K Cartesian  
    -----------------------------------       --------------------------------
     X    =       15938459.69                 X    =         4840775.84
     Y    =       -1731383.99  feet           Y    =         -473496.53  meter
     Z    =       15403883.33                 Z    =         4718660.84
     XDOT =      -6306.416972                 XDOT =       -2012.551203
     YDOT =      22628.225512  feet/sec       YDOT =        6875.082561  meter/sec
     ZDOT =       9032.325716                 ZDOT =        2743.496020
 
              TDR Cartesian                         TDR Cartesian  
    -----------------------------------       --------------------------------
     X    =       -4933894.72                 X    =        -1503851.11
     Y    =       15147819.24  feet           Y    =         4617055.30  meter
     Z    =       15508451.39                 Z    =         4726975.98
     XDOT =     -16906.385758                 XDOT =       -5153.066379
     YDOT =     -14746.408198  feet/sec       YDOT =       -4494.705219  meter/sec
     ZDOT =       8988.761434                 ZDOT =        2739.774485
  
  
    The mean element set is posted at the UTC for which position is
    just north of the next ascending node relative to the above
    vector time
 
 
    TWO LINE MEAN ELEMENT SET
  
    ISS
    1 25544U 98067A   17331.55307903  .00016717  00000-0  10270-3 0  9059
    2 25544  51.6380 303.9209 0003699 159.3939 200.7363 15.54263818  7154
  
  
    Satellite: ISS
    Catalog Number: 25544
    Epoch time:      17331.55307903   =   yrday.fracday
    Element set:     905
    Inclination:       51.6380  deg
    RA of node:       303.9209  deg
    Eccentricity:     .0003699     
    Arg of perigee:   159.3939  deg
    Mean anomaly:     200.7363  deg
    Mean motion:   15.54263818  rev/day
    Decay rate:    1.67170E-04  rev/day^2
    Epoch rev:             715
    Checksum:              317
 
 
    Coasting Arc #7 (Orbit 729)
    ---------------------------------------
 
    Vector Time (GMT): 2017/332/12:00:00.000
    Vector Time (MET): N/A
    Weight (LBS)     : 933812.0
 
